{"version": 0.6, "generator": "Overpass API 0.7.62.1 084b4234", "osm3s": {"timestamp_osm_base": "2024-08-21T15:54:45Z", "copyright": "The data included in this document is from www.openstreetmap.org. The data is made available under ODbL."}, "elements": [{"type": "node", "id": 27419238, "lat": 53.4034988, "lon": -2.9801939}, {"type": "node", "id": 27419487, "lat": 53.4025413, "lon": -2.978418}, {"type": "node", "id": 101439393, "lat": 53.4009005, "lon": -2.9915134, "tags": {"addr:city": "Liverpool", "addr:housenumber": "17", "addr:parentstreet": "Salthouse Quay", "addr:postcode": "L3 4AF", "addr:street": "Edward Pavilion", "amenity": "bar", "name": "Revolution de Cuba", "not:brand:wikidata": "Q64024398", "opening_hours": "Mo-We 11:00-00:00; Th-Sa 11:00-03:00; Su 11:00-00:00", "phone": "+44 151 203 6101", "website": "https://www.revoluciondecuba.com/bar/liverpool/"}}, {"type": "node", "id": 277072278, "lat": 53.4020154, "lon": -2.9805252}, {"type": "node", "id": 308766469, "lat": 53.4080808, "lon": -2.9872457, "tags": {"addr:housenumber": "10", "addr:street": "Cumberland Street", "amenity": "bar", "contact:facebook": "https://www.facebook.com/masquerade.bar/", "lgbtq": "primary", "name": "Masquerade Bar", "phone": "+44 151 236 7786", "postal_code": "L1 6BU"}}, {"type": "node", "id": 348038381, "lat": 53.4017113, "lon": -2.9801952}, {"type": "node", "id": 436643718, "lat": 53.4046061, "lon": -2.9828181}, {"type": "node", "id": 503689416, "lat": 53.4069291, "lon": -2.9310837, "tags": {"amenity": "bar", "name": "Mango"}}, {"type": "node", "id": 705908217, "lat": 53.4013472, "lon": -2.9766557}, {"type": "node", "id": 763472259, "lat": 53.4076249, "lon": -2.9804904}, {"type": "node", "id": 1139717867, "lat": 53.4029376, "lon": -2.9797436, "tags": {"amenity": "bar", "name": "Baa Bar"}}, {"type": "node", "id": 1236244265, "lat": 53.4084696, "lon": -2.9929579}, {"type": "node", "id": 1652770370, "lat": 53.4021006, "lon": -2.9741233}, {"type": "node", "id": 1652770371, "lat": 53.4021192, "lon": -2.9742939}, {"type": "node", "id": 1652770375, "lat": 53.4021948, "lon": -2.9740944}, {"type": "node", "id": 1652770377, "lat": 53.4022134, "lon": -2.974265}, {"type": "node", "id": 1652784506, "lat": 53.4022359, "lon": -2.9792297}, {"type": "node", "id": 2018636175, "lat": 53.3816927, "lon": -2.945247, "tags": {"addr:city": "Liverpool", "addr:housenumber": "107", "addr:postcode": "L17 8UR", "addr:street": "Lark Lane", "amenity": "bar", "name": "Keith's", "phone": "+44 151 727 4350"}}, {"type": "node", "id": 2018647833, "lat": 53.3806724, "lon": -2.9463895, "tags": {"amenity": "bar", "name": "The Lodge", "opening_hours": "Mo-Th 12:00-24:00, Fr 12:00-01:00, Sa 11:00-01:00, Su 11:00-24:00"}}, {"type": "node", "id": 2018647893, "lat": 53.3812265, "lon": -2.9454874, "tags": {"amenity": "bar", "name": "Love and Rockets"}}, {"type": "node", "id": 2018648999, "lat": 53.3823039, "lon": -2.9440553, "tags": {"amenity": "bar", "name": "Minna"}}, {"type": "node", "id": 2068976132, "lat": 53.4015352, "lon": -2.9762745}, {"type": "node", "id": 2068976137, "lat": 53.4011329, "lon": -2.976467}, {"type": "node", "id": 2068976139, "lat": 53.4015294, "lon": -2.9762634}, {"type": "node", "id": 2068976144, "lat": 53.4015147, "lon": -2.9764468}, {"type": "node", "id": 2068976148, "lat": 53.4012937, "lon": -2.9765014}, {"type": "node", "id": 2144835420, "lat": 53.4073009, "lon": -2.9804393}, {"type": "node", "id": 2144835430, "lat": 53.4072724, "lon": -2.9804994}, {"type": "node", "id": 2144835468, "lat": 53.4074002, "lon": -2.9802129}, {"type": "node", "id": 2144835489, "lat": 53.4073599, "lon": -2.9803048}, {"type": "node", "id": 2188561493, "lat": 53.4050402, "lon": -2.9908947}, {"type": "node", "id": 2188587754, "lat": 53.4058704, "lon": -2.9872204}, {"type": "node", "id": 2188587765, "lat": 53.4068283, "lon": -2.9873966}, {"type": "node", "id": 2188587797, "lat": 53.4058758, "lon": -2.9870789}, {"type": "node", "id": 2188587798, "lat": 53.4061294, "lon": -2.9879312}, {"type": "node", "id": 2188587801, "lat": 53.4061075, "lon": -2.9880881}, {"type": "node", "id": 2188587802, "lat": 53.4058895, "lon": -2.986722}, {"type": "node", "id": 2188587806, "lat": 53.4061522, "lon": -2.987255}, {"type": "node", "id": 2188587813, "lat": 53.4058858, "lon": -2.9868185}, {"type": "node", "id": 2188587830, "lat": 53.4062295, "lon": -2.9867622}, {"type": "node", "id": 2188587842, "lat": 53.4062845, "lon": -2.9881549}, {"type": "node", "id": 2188612238, "lat": 53.4018046, "lon": -2.9787555}, {"type": "node", "id": 2188612246, "lat": 53.4018458, "lon": -2.9795137}, {"type": "node", "id": 2188612262, "lat": 53.4035186, "lon": -2.9793111}, {"type": "node", "id": 2188612274, "lat": 53.4017981, "lon": -2.9793908}, {"type": "node", "id": 2188612275, "lat": 53.4017022, "lon": -2.9794869}, {"type": "node", "id": 2188612293, "lat": 53.4035807, "lon": -2.9803686}, {"type": "node", "id": 2188612301, "lat": 53.4027941, "lon": -2.9789409}, {"type": "node", "id": 2188612306, "lat": 53.403852, "lon": -2.9809798}, {"type": "node", "id": 2188612314, "lat": 53.4023356, "lon": -2.9796045}, {"type": "node", "id": 2188612327, "lat": 53.4026818, "lon": -2.9786914}, {"type": "node", "id": 2188612343, "lat": 53.4019272, "lon": -2.9791022}, {"type": "node", "id": 2188612356, "lat": 53.4033163, "lon": -2.9795784}, {"type": "node", "id": 2188612366, "lat": 53.4027675, "lon": -2.9785809}, {"type": "node", "id": 2188612371, "lat": 53.4035066, "lon": -2.98099}, {"type": "node", "id": 2188612407, "lat": 53.4035963, "lon": -2.979476}, {"type": "node", "id": 2188612408, "lat": 53.4017441, "lon": -2.9796107}, {"type": "node", "id": 2188612428, "lat": 53.4037164, "lon": -2.9806765}, {"type": "node", "id": 2188612432, "lat": 53.4036516, "lon": -2.9812665}, {"type": "node", "id": 2188612440, "lat": 53.4022115, "lon": -2.9789326}, {"type": "node", "id": 2188612443, "lat": 53.4022388, "lon": -2.9790155}, {"type": "node", "id": 2188612461, "lat": 53.4018063, "lon": -2.9792228}, {"type": "node", "id": 2261421096, "lat": 53.40752, "lon": -2.9807292}, {"type": "node", "id": 2267266601, "lat": 53.4002448, "lon": -2.9910198, "tags": {"addr:city": "Liverpool", "addr:parentstreet": "Salthouse Quay", "addr:postcode": "L3 4AE", "addr:street": "Atlantic Pavilion", "amenity": "bar", "brand": "Revolution", "brand:wikidata": "Q64024398", "fhrs:id": "1243740", "name": "Revolution", "source:addr": "FHRS Open Data"}}, {"type": "node", "id": 2277696724, "lat": 53.4021391, "lon": -2.9695868}, {"type": "node", "id": 2277696858, "lat": 53.4022589, "lon": -2.9696886}, {"type": "node", "id": 2277696943, "lat": 53.4022129, "lon": -2.9694592}, {"type": "node", "id": 2277696956, "lat": 53.4022035, "lon": -2.969908}, {"type": "node", "id": 2392560996, "lat": 53.4016253, "lon": -2.9803554}, {"type": "node", "id": 2392560998, "lat": 53.4016408, "lon": -2.9802642}, {"type": "node", "id": 2392560999, "lat": 53.4016538, "lon": -2.9804373}, {"type": "node", "id": 2392561000, "lat": 53.4016606, "lon": -2.980321}, {"type": "node", "id": 2392561003, "lat": 53.4017695, "lon": -2.9803241}, {"type": "node", "id": 2745708194, "lat": 53.4028766, "lon": -2.9760278}, {"type": "node", "id": 2746158027, "lat": 53.4007649, "lon": -2.9756338}, {"type": "node", "id": 2746158038, "lat": 53.4008697, "lon": -2.9755957}, {"type": "node", "id": 2746158047, "lat": 53.4008028, "lon": -2.9759276}, {"type": "node", "id": 2804280485, "lat": 53.3849427, "lon": -2.9069655, "tags": {"addr:city": "Liverpool", "addr:housenumber": "141-143", "addr:postcode": "L18 2DD", "addr:street": "Allerton Road", "amenity": "bar", "fhrs:id": "1243638", "name": "The Other Place", "source:addr": "FHRS Open Data"}}, {"type": "node", "id": 2836058659, "lat": 53.4019966, "lon": -2.9825425}, {"type": "node", "id": 2836058689, "lat": 53.4020944, "lon": -2.9824785}, {"type": "node", "id": 2836058802, "lat": 53.4021296, "lon": -2.9831183}, {"type": "node", "id": 2836058804, "lat": 53.4021843, "lon": -2.9825762}, {"type": "node", "id": 2836058826, "lat": 53.4022254, "lon": -2.9830619}, {"type": "node", "id": 2836058864, "lat": 53.4023788, "lon": -2.9799398}, {"type": "node", "id": 2836058879, "lat": 53.4024359, "lon": -2.9798807}, {"type": "node", "id": 2836058883, "lat": 53.4024566, "lon": -2.9828204}, {"type": "node", "id": 2836058890, "lat": 53.4024823, "lon": -2.9798336}, {"type": "node", "id": 2836058891, "lat": 53.4024813, "lon": -2.9802208}, {"type": "node", "id": 2836058897, "lat": 53.4025384, "lon": -2.9801642}, {"type": "node", "id": 2836058907, "lat": 53.4025222, "lon": -2.9797865}, {"type": "node", "id": 2836058949, "lat": 53.4025847, "lon": -2.9801171}, {"type": "node", "id": 2836058969, "lat": 53.4026488, "lon": -2.9800518}, {"type": "node", "id": 2836059286, "lat": 53.4029161, "lon": -2.9787028}, {"type": "node", "id": 2836059297, "lat": 53.4029496, "lon": -2.9787731}, {"type": "node", "id": 2836059320, "lat": 53.4030228, "lon": -2.9791499}, {"type": "node", "id": 2836059325, "lat": 53.4030392, "lon": -2.9793904}, {"type": "node", "id": 2836059336, "lat": 53.4031004, "lon": -2.9784554}, {"type": "node", "id": 2836059350, "lat": 53.4031339, "lon": -2.9785254}, {"type": "node", "id": 2836059356, "lat": 53.4031433, "lon": -2.9847373}, {"type": "node", "id": 2836059358, "lat": 53.4031574, "lon": -2.9847512}, {"type": "node", "id": 2836059533, "lat": 53.4033838, "lon": -2.9846404}, {"type": "node", "id": 2836059535, "lat": 53.4033864, "lon": -2.984733}, {"type": "node", "id": 2836059559, "lat": 53.4034571, "lon": -2.9798766}, {"type": "node", "id": 2836059569, "lat": 53.4035168, "lon": -2.9800042}, {"type": "node", "id": 2836059576, "lat": 53.4037242, "lon": -2.9797311}, {"type": "node", "id": 2836059598, "lat": 53.4036644, "lon": -2.9796034}, {"type": "node", "id": 2836059746, "lat": 53.4039192, "lon": -2.9817876}, {"type": "node", "id": 2836059910, "lat": 53.4041194, "lon": -2.9826359}, {"type": "node", "id": 2836059917, "lat": 53.4041355, "lon": -2.9827551}, {"type": "node", "id": 2836059944, "lat": 53.4042443, "lon": -2.9823789}, {"type": "node", "id": 2836059949, "lat": 53.4042607, "lon": -2.9823636}, {"type": "node", "id": 2836059953, "lat": 53.4042768, "lon": -2.9823686}, {"type": "node", "id": 2836059954, "lat": 53.4043295, "lon": -2.9826874}, {"type": "node", "id": 2836059956, "lat": 53.404301, "lon": -2.9824064}, {"type": "node", "id": 3131310991, "lat": 53.4076628, "lon": -2.9877839, "tags": {"addr:housenumber": "8-10", "addr:street": "Stanley Street", "amenity": "bar", "building:levels": "-1", "fhrs:id": "665042", "name": "Boutique", "source": "Mapillary", "source:addr": "FHRS Open Data"}}, {"type": "node", "id": 3755497311, "lat": 53.4009077, "lon": -2.9758895}, {"type": "node", "id": 4314101468, "lat": 53.402155, "lon": -2.9699381}, {"type": "node", "id": 4339464394, "lat": 53.4067466, "lon": -2.9775305, "tags": {"addr:city": "Liverpool", "addr:housename": "Grand Central", "addr:postcode": "L3 5GA", "addr:street": "Hilbre Street", "amenity": "bar", "name": "Dough Bar"}}, {"type": "node", "id": 4340688542, "lat": 53.4022927, "lon": -2.9698576}, {"type": "node", "id": 4402567190, "lat": 53.4045911, "lon": -2.9827017}, {"type": "node", "id": 4417944954, "lat": 53.4050837, "lon": -2.9661891, "tags": {"amenity": "bar", "name": "Courtyard Bar"}}, {"type": "node", "id": 4437731929, "lat": 53.4063984, "lon": -2.9789424}, {"type": "node", "id": 4437731933, "lat": 53.4065239, "lon": -2.978735}, {"type": "node", "id": 4437731935, "lat": 53.406448, "lon": -2.9789704}, {"type": "node", "id": 4443832459, "lat": 53.4059991, "lon": -2.9777488, "tags": {"addr:city": "Liverpool", "addr:housename": "Grand Central", "addr:postcode": "L3 5LX", "addr:street": "Bolton Street", "amenity": "bar", "name": "Riley's Sports Bar", "opening_hours": "Mo-Sa 11:00-00:00; Su 11:00-23:00", "operator": "Riley's", "smoking": "no", "sport": "billiards"}}, {"type": "node", "id": 4484185003, "lat": 53.3373311, "lon": -2.8550808, "tags": {"amenity": "bar", "name": "Go Bar & Kitchen"}}, {"type": "node", "id": 4484185005, "lat": 53.3372222, "lon": -2.8546678, "tags": {"amenity": "bar", "name": "Premium Lounge"}}, {"type": "node", "id": 4501083387, "lat": 53.4029872, "lon": -2.9882663, "tags": {"amenity": "bar", "name": "Bierkeller"}}, {"type": "node", "id": 4501132273, "lat": 53.4040133, "lon": -2.9887198}, {"type": "node", "id": 4501133096, "lat": 53.4037137, "lon": -2.9888415, "tags": {"addr:city": "Liverpool", "addr:postcode": "L1 3DF", "addr:street": "Kenyon's Steps", "amenity": "bar", "name": "Thaikhun", "source:addr:postcode": "code-point_open"}}, {"type": "node", "id": 4501133101, "lat": 53.4038441, "lon": -2.9886795}, {"type": "node", "id": 4501133106, "lat": 53.4039366, "lon": -2.9887815}, {"type": "node", "id": 4501133108, "lat": 53.403888, "lon": -2.9883659}, {"type": "node", "id": 4501133120, "lat": 53.4036593, "lon": -2.9838339, "tags": {"amenity": "bar", "check_date": "2023-09-11", "name": "Roxy Ball Room", "toilets": "yes", "toilets:wheelchair": "yes", "wheelchair": "yes"}}, {"type": "node", "id": 4501133130, "lat": 53.4037848, "lon": -2.9884811}, {"type": "node", "id": 4501133133, "lat": 53.4038749, "lon": -2.9883754}, {"type": "node", "id": 4508657141, "lat": 53.4048488, "lon": -2.9776398, "tags": {"amenity": "bar", "name": "Ava's Bar"}}, {"type": "node", "id": 4508695278, "lat": 53.4022613, "lon": -2.9767493, "tags": {"addr:city": "Liverpool", "addr:housenumber": "112", "addr:postcode": "L1 4HY", "addr:street": "Bold Street", "amenity": "bar", "contact:instagram": "laperitivoliverpool", "cuisine": "modern_british", "fhrs:id": "1244094", "fhrs:local_authority_id": "75998", "internet_access": "wlan", "level": "0", "name": "L\u2019Aperitivo", "old_name": "East Avenue Bakehouse", "opening_hours": "Tu-Th 16:00-00:00; Fr 16:00-02:00; Sa 15:00-02:00; Su 15:00-00:00", "phone": "+44 151 708 6219", "smoking": "no", "toilets": "yes", "toilets:wheelchair": "yes", "website": "https://laperitivoliverpool.co.uk/", "wheelchair": "yes"}}, {"type": "node", "id": 4515273806, "lat": 53.4019538, "lon": -2.9761731, "tags": {"addr:city": "Liverpool", "addr:housenumber": "126", "addr:postcode": "L1 4JA", "addr:street": "Bold Street", "alt_name": "Cafe Tabac", "amenity": "bar", "fhrs:id": "496083", "fhrs:local_authority_id": "PI/000013869", "level": "0", "name": "Bar Tabac", "smoking": "outside"}}, {"type": "node", "id": 4516777645, "lat": 53.4024013, "lon": -2.984039, "tags": {"amenity": "bar", "name": "Filter and Fox", "wheelchair": "no"}}, {"type": "node", "id": 4683836396, "lat": 53.4022661, "lon": -2.9834184, "tags": {"amenity": "bar", "name": "The Brunch Club", "opening_hours": "Mo-Th 09:00-17:00; Fr 09:00-22:00+; Sa,Su 08:00-22:00+", "smoking": "no", "wheelchair": "no"}}, {"type": "node", "id": 4683836400, "lat": 53.4011931, "lon": -2.9764067}, {"type": "node", "id": 5214540884, "lat": 53.38052, "lon": -2.946582, "tags": {"addr:street": "Lark Lane", "amenity": "bar", "name": "Blondies"}}, {"type": "node", "id": 5214540885, "lat": 53.3804894, "lon": -2.9466404, "tags": {"addr:street": "Lark Lane", "amenity": "bar", "name": "Lost in Lark Lane", "operator": "Writer's Block"}}, {"type": "node", "id": 5276924329, "lat": 53.4031303, "lon": -2.9800387, "tags": {"addr:city": "Liverpool", "addr:housenumber": "46-50", "addr:postcode": "L1 4AQ", "addr:street": "Wood Street", "amenity": "bar", "name": "Boston Pool Loft", "phone": "+44 151 305 2426", "website": "https://bostonpoolloft.co.uk/"}}, {"type": "node", "id": 5612243080, "lat": 53.4064232, "lon": -2.9874313, "tags": {"amenity": "bar", "name": "Rubber Soul"}}, {"type": "node", "id": 5612303766, "lat": 53.4068041, "lon": -2.988251, "tags": {"addr:city": "Liverpool", "addr:housenumber": "9", "addr:postcode": "L2 5QA", "addr:street": "Victoria Street", "amenity": "bar", "lgbtq": "primary", "name": "OMG"}}, {"type": "node", "id": 5612684978, "lat": 53.4067195, "lon": -2.9840086}, {"type": "node", "id": 5613166126, "lat": 53.4037645, "lon": -2.9740723, "tags": {"amenity": "bar", "name": "Voodoo Lounge"}}, {"type": "node", "id": 5614802027, "lat": 53.4030095, "lon": -2.975599}, {"type": "node", "id": 5861451936, "lat": 53.4082774, "lon": -2.9764515, "tags": {"amenity": "bar", "name": "Castaway"}}, {"type": "node", "id": 5861452517, "lat": 53.4075905, "lon": -2.9809129, "tags": {"amenity": "bar", "name": "Courtyard"}}, {"type": "node", "id": 5863833650, "lat": 53.4084403, "lon": -2.990989, "tags": {"addr:city": "Liverpool", "addr:housename": "Tempest Building", "addr:postcode": "L2 2DT", "addr:street": "Tithebarn Street", "amenity": "bar", "fhrs:id": "927895", "name": "Tempest on Tithebarn", "source:addr": "FHRS Open Data"}}, {"type": "node", "id": 5865641966, "lat": 53.4033846, "lon": -2.9797618}, {"type": "node", "id": 5871157722, "lat": 53.4064767, "lon": -2.9883266, "tags": {"amenity": "bar", "name": "Wall of Fame"}}, {"type": "node", "id": 5871157989, "lat": 53.4078391, "lon": -2.9924684, "tags": {"amenity": "bar", "name": "El Gato Negro Tapas"}}, {"type": "node", "id": 5871159302, "lat": 53.4079378, "lon": -2.9882997, "tags": {"amenity": "bar", "name": "Ghoulies Horror Bar"}}, {"type": "node", "id": 5871727258, "lat": 53.4005031, "lon": -2.9764376, "tags": {"amenity": "bar", "name": "Bunch"}}, {"type": "node", "id": 5871727260, "lat": 53.4003423, "lon": -2.9760397, "tags": {"amenity": "bar", "name": "Lucky's"}}, {"type": "node", "id": 5871727883, "lat": 53.4017347, "lon": -2.9728733, "tags": {"amenity": "bar", "name": "Tom Thumb"}}, {"type": "node", "id": 5871728986, "lat": 53.400146, "lon": -2.9761027, "tags": {"amenity": "bar", "name": "Chamber 36"}}, {"type": "node", "id": 5871728987, "lat": 53.4010832, "lon": -2.9762894, "tags": {"addr:city": "Liverpool", "addr:housenumber": "85", "addr:postcode": "L1 4BB", "addr:street": "Seel Street", "amenity": "bar", "fhrs:id": "1632614", "name": "Danny Cs Distillery & Bar"}}, {"type": "node", "id": 6027632006, "lat": 53.4022993, "lon": -2.9141956, "tags": {"addr:city": "liverpool", "addr:housename": "Long Lane", "addr:street": "Long Lane", "amenity": "bar", "brewery": "yes", "name": "Olive Bank Community Club", "outdoor_seating": "yes", "smoking": "outside"}}, {"type": "node", "id": 6240702554, "lat": 53.4011337, "lon": -2.9690906, "tags": {"amenity": "bar", "name": "Music Room"}}, {"type": "node", "id": 6266681523, "lat": 53.4048846, "lon": -2.9909061}, {"type": "node", "id": 6331369615, "lat": 53.3813932, "lon": -2.9457002, "tags": {"amenity": "bar", "check_date:opening_hours": "2023-03-24", "name": "Polidor", "opening_hours:signed": "no"}}, {"type": "node", "id": 6366040785, "lat": 53.4005407, "lon": -2.9764186, "tags": {"addr:city": "Liverpool", "addr:housenumber": "48", "addr:postcode": "L1 4JQ", "addr:street": "Berry Street", "amenity": "bar", "name": "Berry & Rye", "opening_hours": "Mo-Su 17:00-02:00", "phone": "+447305079675"}}, {"type": "node", "id": 6366040885, "lat": 53.4025183, "lon": -2.9808399, "tags": {"addr:city": "Liverpool", "addr:housenumber": "40", "addr:postcode": "L1 4BE", "addr:street": "Seel Street", "amenity": "bar", "name": "PHASE one", "name:en": "PHASE ONE", "opening_hours": "Mo-Su 12:00-00:00"}}, {"type": "node", "id": 6512256293, "lat": 53.4059202, "lon": -2.994019, "tags": {"amenity": "bar", "name": "Africa House Roof Bar"}}, {"type": "node", "id": 6762428724, "lat": 53.4065988, "lon": -2.9785032}, {"type": "node", "id": 6762428750, "lat": 53.4065355, "lon": -2.9786941}, {"type": "node", "id": 6784927304, "lat": 53.4021305, "lon": -2.9826328}, {"type": "node", "id": 6807297586, "lat": 53.4037203, "lon": -2.9793748, "tags": {"addr:city": "Liverpool", "addr:housenumber": "17-19", "addr:postcode": "L1 4DN", "addr:street": "Bold Street", "amenity": "bar", "fhrs:id": "1243914", "fhrs:local_authority_id": "71846", "name": "Bundobust"}}, {"type": "node", "id": 6807322786, "lat": 53.4044008, "lon": -2.9821365, "tags": {"amenity": "bar", "name": "Head of Steam"}}, {"type": "node", "id": 6814125085, "lat": 53.3934568, "lon": -2.9808636, "tags": {"amenity": "bar", "name": "Gibberish"}}, {"type": "node", "id": 6814303886, "lat": 53.3977952, "lon": -2.9830229, "tags": {"addr:street": "Kings Dock Street", "amenity": "bar", "name": "Black Lodge Brewery"}}, {"type": "node", "id": 6825321285, "lat": 53.4036156, "lon": -2.9806747, "tags": {"amenity": "bar", "name": "Mulligan's of Liverpool"}}, {"type": "node", "id": 6829837286, "lat": 53.3936176, "lon": -2.9780244, "tags": {"amenity": "bar", "name": "Peaky Blinders Liverpool"}}, {"type": "node", "id": 7098328974, "lat": 53.3969135, "lon": -2.9811477, "tags": {"amenity": "bar", "name": "Hobo Kiosk", "outdoor_seating": "no", "wheelchair": "no"}}, {"type": "node", "id": 7098378338, "lat": 53.4012908, "lon": -2.9720827, "tags": {"addr:city": "Liverpool", "addr:housenumber": "24", "addr:postcode": "L1 9AX", "addr:street": "Hardman Street", "amenity": "bar", "name": "Buyers Club", "outdoor_seating": "yes", "website": "https://www.buyers-club.co.uk/"}}, {"type": "node", "id": 7770768821, "lat": 53.3939315, "lon": -2.9790695, "tags": {"addr:city": "Liverpool", "addr:housenumber": "29-31", "addr:postcode": "L8 5RN", "addr:street": "Parliament Street", "amenity": "bar", "name": "Birdie's Bar and Barbeque", "opening_hours": "Mo-Su 12:00-01:00"}}, {"type": "node", "id": 8129883495, "lat": 53.4075325, "lon": -2.9807008}, {"type": "node", "id": 8168088136, "lat": 53.4073921, "lon": -2.9802314}, {"type": "node", "id": 8249961844, "lat": 53.4015267, "lon": -2.9764818}, {"type": "node", "id": 8249961891, "lat": 53.401489, "lon": -2.9774505}, {"type": "node", "id": 8249961893, "lat": 53.4022727, "lon": -2.9796439}, {"type": "node", "id": 8250022992, "lat": 53.4023287, "lon": -2.9795859}, {"type": "node", "id": 8250022993, "lat": 53.4022177, "lon": -2.9794801}, {"type": "node", "id": 8250022994, "lat": 53.4021005, "lon": -2.979153}, {"type": "node", "id": 8250022995, "lat": 53.4023783, "lon": -2.9787682}, {"type": "node", "id": 8250022996, "lat": 53.402455, "lon": -2.9789387}, {"type": "node", "id": 8250022997, "lat": 53.402318, "lon": -2.9791105}, {"type": "node", "id": 8250022998, "lat": 53.4023272, "lon": -2.9791356}, {"type": "node", "id": 8250023002, "lat": 53.4023829, "lon": -2.9793131}, {"type": "node", "id": 8250023003, "lat": 53.4024401, "lon": -2.979473}, {"type": "node", "id": 8250023009, "lat": 53.402325, "lon": -2.9791017}, {"type": "node", "id": 8250309067, "lat": 53.4012369, "lon": -2.9780261}, {"type": "node", "id": 8250309069, "lat": 53.4013768, "lon": -2.9778895}, {"type": "node", "id": 8250309070, "lat": 53.4013625, "lon": -2.9778484}, {"type": "node", "id": 8252872631, "lat": 53.4020496, "lon": -2.9808248}, {"type": "node", "id": 8252872632, "lat": 53.4020805, "lon": -2.9807123}, {"type": "node", "id": 8252872634, "lat": 53.4019003, "lon": -2.9803961}, {"type": "node", "id": 8252872636, "lat": 53.4020648, "lon": -2.9804768}, {"type": "node", "id": 8252872637, "lat": 53.402002, "lon": -2.9802965}, {"type": "node", "id": 8252872638, "lat": 53.4020488, "lon": -2.9802507}, {"type": "node", "id": 8252872639, "lat": 53.4020999, "lon": -2.9804003}, {"type": "node", "id": 8252872646, "lat": 53.4021016, "lon": -2.9801962}, {"type": "node", "id": 8252872647, "lat": 53.4022516, "lon": -2.9806269}, {"type": "node", "id": 8252872648, "lat": 53.4021993, "lon": -2.9806781}, {"type": "node", "id": 8252872649, "lat": 53.4021492, "lon": -2.9807273}, {"type": "node", "id": 8252872687, "lat": 53.4023041, "lon": -2.9824308}, {"type": "node", "id": 8252872688, "lat": 53.4021801, "lon": -2.9825651}, {"type": "node", "id": 8252872691, "lat": 53.4020688, "lon": -2.9824948}, {"type": "node", "id": 8252872693, "lat": 53.402504, "lon": -2.9829523}, {"type": "node", "id": 8252872694, "lat": 53.4023898, "lon": -2.9830761}, {"type": "node", "id": 8252872695, "lat": 53.4023655, "lon": -2.9830102}, {"type": "node", "id": 8252872696, "lat": 53.4023486, "lon": -2.9830253}, {"type": "node", "id": 8252872697, "lat": 53.4023253, "lon": -2.9829599}, {"type": "node", "id": 8252872711, "lat": 53.4024033, "lon": -2.9830621}, {"type": "node", "id": 8792415137, "lat": 53.3806856, "lon": -2.9467133, "tags": {"amenity": "bar", "name": "Bar 25"}}, {"type": "node", "id": 9399203618, "lat": 53.4029702, "lon": -2.979824, "tags": {"addr:housenumber": "41", "addr:street": "Fleet Street", "amenity": "bar", "name": "Black Rabbit", "name:en": "Black Rabbit Shot Co."}}, {"type": "node", "id": 9420269417, "lat": 53.4004165, "lon": -2.9789058, "tags": {"addr:city": "Liverpool", "addr:housenumber": "12", "addr:postcode": "L1 5BF", "addr:street": "Madison Square", "amenity": "bar", "name": "A Tavola", "name:en": "A Tavola Italian Deli, Wine Bar and Cooking School"}}, {"type": "node", "id": 9683811017, "lat": 53.3994802, "lon": -2.9916288, "tags": {"addr:city": "Liverpool", "addr:housenumber": "Unit 3a", "addr:parentstreet": "Gower Street", "addr:postcode": "L3 4AD", "addr:street": "Britannia Pavilion", "amenity": "bar", "check_date": "2023-09-11", "fhrs:id": "1371962", "name": "The One O'Clock Gun", "website": "https://theoneoclockgun.pub/"}}, {"type": "node", "id": 9788701893, "lat": 53.4062189, "lon": -2.9870165}, {"type": "node", "id": 9788701895, "lat": 53.4061624, "lon": -2.9870053}, {"type": "node", "id": 9909451166, "lat": 53.4104787, "lon": -2.9701616, "tags": {"addr:city": "Liverpool", "addr:postcode": "L3 8HB", "addr:street": "Constance Street", "amenity": "bar", "brewery": "yes", "min_age": "18", "name": "Melodic Distraction"}}, {"type": "node", "id": 9938830065, "lat": 53.4141746, "lon": -2.9088128, "tags": {"addr:city": "Liverpool", "addr:housenumber": "674-676", "addr:postcode": "L13 5XG", "addr:street": "Prescot Road", "amenity": "bar", "fhrs:id": "912535", "name": "The Ale House", "source:addr": "FHRS Open Data"}}, {"type": "node", "id": 9943815038, "lat": 53.4066471, "lon": -2.9871949}, {"type": "node", "id": 9943815039, "lat": 53.4065615, "lon": -2.986907}, {"type": "node", "id": 9943815040, "lat": 53.4065158, "lon": -2.986859}, {"type": "node", "id": 9943815041, "lat": 53.4064952, "lon": -2.9868424}, {"type": "node", "id": 9943815042, "lat": 53.4064679, "lon": -2.9868319}, {"type": "node", "id": 9943815043, "lat": 53.4063976, "lon": -2.9868237}, {"type": "node", "id": 9943815044, "lat": 53.4066211, "lon": -2.986973}, {"type": "node", "id": 9943815045, "lat": 53.4063936, "lon": -2.9869772}, {"type": "node", "id": 9943815046, "lat": 53.4064824, "lon": -2.98699}, {"type": "node", "id": 9943815047, "lat": 53.4065973, "lon": -2.9870446}, {"type": "node", "id": 9943815048, "lat": 53.4065353, "lon": -2.9870158}, {"type": "node", "id": 9943815055, "lat": 53.4066816, "lon": -2.9870361}, {"type": "node", "id": 9943815056, "lat": 53.4066402, "lon": -2.9871567}, {"type": "node", "id": 9943815057, "lat": 53.4066354, "lon": -2.9871796}, {"type": "node", "id": 9943815058, "lat": 53.406788, "lon": -2.9871487}, {"type": "node", "id": 9943815059, "lat": 53.40681, "lon": -2.987178}, {"type": "node", "id": 9943815060, "lat": 53.4068247, "lon": -2.9872111}, {"type": "node", "id": 9943815061, "lat": 53.4068346, "lon": -2.9872389}, {"type": "node", "id": 9943815062, "lat": 53.4068417, "lon": -2.9872749}, {"type": "node", "id": 9943815063, "lat": 53.406844, "lon": -2.9873027}, {"type": "node", "id": 9943815064, "lat": 53.4068449, "lon": -2.9873448}, {"type": "node", "id": 9943815065, "lat": 53.4063582, "lon": -2.9866991}, {"type": "node", "id": 9943815066, "lat": 53.4063612, "lon": -2.9865844}, {"type": "node", "id": 9943815067, "lat": 53.4062123, "lon": -2.986564}, {"type": "node", "id": 9943815068, "lat": 53.4062086, "lon": -2.9866784}, {"type": "node", "id": 9943815069, "lat": 53.4063645, "lon": -2.9864961}, {"type": "node", "id": 9943815070, "lat": 53.4062142, "lon": -2.9864716}, {"type": "node", "id": 9943815073, "lat": 53.4062546, "lon": -2.9862456}, {"type": "node", "id": 9943815074, "lat": 53.406307, "lon": -2.9862966}, {"type": "node", "id": 9943815075, "lat": 53.4063255, "lon": -2.9863233}, {"type": "node", "id": 9943815076, "lat": 53.4063388, "lon": -2.9863513}, {"type": "node", "id": 9943815077, "lat": 53.4063528, "lon": -2.9863922}, {"type": "node", "id": 9943815078, "lat": 53.4063624, "lon": -2.9864425}, {"type": "node", "id": 9999525205, "lat": 53.405601, "lon": -2.9787512}, {"type": "node", "id": 9999525206, "lat": 53.4056505, "lon": -2.9785823}, {"type": "node", "id": 9999526840, "lat": 53.4058815, "lon": -2.9797758}, {"type": "node", "id": 9999526841, "lat": 53.4060227, "lon": -2.9794193}, {"type": "node", "id": 9999526842, "lat": 53.4058073, "lon": -2.9796939}, {"type": "node", "id": 9999526843, "lat": 53.4059506, "lon": -2.9793359}, {"type": "node", "id": 9999526844, "lat": 53.4057392, "lon": -2.9796215}, {"type": "node", "id": 9999526845, "lat": 53.4058826, "lon": -2.9792582}, {"type": "node", "id": 9999526846, "lat": 53.4056663, "lon": -2.9795416}, {"type": "node", "id": 9999526847, "lat": 53.4058113, "lon": -2.9791759}, {"type": "node", "id": 9999526848, "lat": 53.4055938, "lon": -2.9794635}, {"type": "node", "id": 9999526849, "lat": 53.4057389, "lon": -2.9790956}, {"type": "node", "id": 10203868109, "lat": 53.3814121, "lon": -2.945672, "tags": {"amenity": "bar", "cuisine": "italian", "level": "0", "name": "Mani"}}, {"type": "node", "id": 10221802694, "lat": 53.4064444, "lon": -2.9783576}, {"type": "node", "id": 10221802695, "lat": 53.4062872, "lon": -2.9788412}, {"type": "node", "id": 10221802702, "lat": 53.4065055, "lon": -2.978792}, {"type": "node", "id": 10234447466, "lat": 53.4056999, "lon": -2.9786229}, {"type": "node", "id": 10234447467, "lat": 53.4056417, "lon": -2.9788006}, {"type": "node", "id": 10234447473, "lat": 53.40441, "lon": -2.9828884}, {"type": "node", "id": 10234447478, "lat": 53.404396, "lon": -2.9827699}, {"type": "node", "id": 10234447479, "lat": 53.4043842, "lon": -2.982676}, {"type": "node", "id": 10234447480, "lat": 53.4045786, "lon": -2.9826067}, {"type": "node", "id": 10234611869, "lat": 53.4067002, "lon": -2.987254}, {"type": "node", "id": 10234611881, "lat": 53.4064505, "lon": -2.9873529, "tags": {"amenity": "bar", "name": "Kaiserkeller"}}, {"type": "node", "id": 10234611885, "lat": 53.4061342, "lon": -2.9878937}, {"type": "node", "id": 10234611886, "lat": 53.4063004, "lon": -2.9879558}, {"type": "node", "id": 10234611887, "lat": 53.4062939, "lon": -2.9880823}, {"type": "node", "id": 10234611888, "lat": 53.4062856, "lon": -2.9880783}, {"type": "node", "id": 10244188581, "lat": 53.4023295, "lon": -2.972483, "tags": {"amenity": "bar", "name": "The Baltimore"}}, {"type": "node", "id": 10294067393, "lat": 53.4055968, "lon": -2.9904751}, {"type": "node", "id": 10294067394, "lat": 53.4055034, "lon": -2.9908066}, {"type": "node", "id": 10294067395, "lat": 53.4056865, "lon": -2.9905507}, {"type": "node", "id": 10294067396, "lat": 53.4056255, "lon": -2.99077}, {"type": "node", "id": 10294067397, "lat": 53.4056055, "lon": -2.9907525}, {"type": "node", "id": 10294067398, "lat": 53.4055697, "lon": -2.9908719}, {"type": "node", "id": 10294067399, "lat": 53.4057611, "lon": -2.9906162}, {"type": "node", "id": 10294067400, "lat": 53.405692, "lon": -2.990857}, {"type": "node", "id": 10294067401, "lat": 53.4057342, "lon": -2.9908909}, {"type": "node", "id": 10294067402, "lat": 53.4057009, "lon": -2.991005}, {"type": "node", "id": 10294088822, "lat": 53.4057936, "lon": -2.9906424}, {"type": "node", "id": 10294088823, "lat": 53.4057245, "lon": -2.9908832}, {"type": "node", "id": 10294240895, "lat": 53.4049094, "lon": -2.9909399}, {"type": "node", "id": 10294240896, "lat": 53.4049302, "lon": -2.990897}, {"type": "node", "id": 10294240897, "lat": 53.4048981, "lon": -2.9908532}, {"type": "node", "id": 10294240898, "lat": 53.4048403, "lon": -2.9909973}, {"type": "node", "id": 10294240899, "lat": 53.4048533, "lon": -2.9910149}, {"type": "node", "id": 10294240901, "lat": 53.4049312, "lon": -2.9911198}, {"type": "node", "id": 10294240902, "lat": 53.4049423, "lon": -2.9907612}, {"type": "node", "id": 10299297892, "lat": 53.4065134, "lon": -2.9912227}, {"type": "node", "id": 10299297893, "lat": 53.4066548, "lon": -2.9913309}, {"type": "node", "id": 10299297896, "lat": 53.4066241, "lon": -2.9916539}, {"type": "node", "id": 10299297897, "lat": 53.4066687, "lon": -2.9916956}, {"type": "node", "id": 10299297898, "lat": 53.406756, "lon": -2.9914106}, {"type": "node", "id": 10299297900, "lat": 53.4067088, "lon": -2.9913721}, {"type": "node", "id": 10299297902, "lat": 53.4065671, "lon": -2.9914988}, {"type": "node", "id": 10299297903, "lat": 53.4066236, "lon": -2.9913071}, {"type": "node", "id": 10299297904, "lat": 53.4065982, "lon": -2.9915244}, {"type": "node", "id": 10299297905, "lat": 53.4065716, "lon": -2.9912672}, {"type": "node", "id": 10299297906, "lat": 53.406516, "lon": -2.9914593}, {"type": "node", "id": 10299297907, "lat": 53.406485, "lon": -2.9914341}, {"type": "node", "id": 10299297908, "lat": 53.4065403, "lon": -2.9912433}, {"type": "node", "id": 10299298409, "lat": 53.4064581, "lon": -2.9914117}, {"type": "node", "id": 10299298410, "lat": 53.4065688, "lon": -2.9915002}, {"type": "node", "id": 10565786329, "lat": 53.4067201, "lon": -2.9869225}, {"type": "node", "id": 10565786330, "lat": 53.4067628, "lon": -2.9868019}, {"type": "node", "id": 10565786341, "lat": 53.4066414, "lon": -2.9868437}, {"type": "node", "id": 10565786342, "lat": 53.4066876, "lon": -2.9867094}, {"type": "node", "id": 10799870532, "lat": 53.4024212, "lon": -2.9800565}, {"type": "node", "id": 10799870533, "lat": 53.4024783, "lon": -2.9799981}, {"type": "node", "id": 10799870534, "lat": 53.40242, "lon": -2.9795161}, {"type": "node", "id": 10799870535, "lat": 53.4024141, "lon": -2.9795003}, {"type": "node", "id": 10799870536, "lat": 53.4023676, "lon": -2.9795712}, {"type": "node", "id": 10799870539, "lat": 53.4022822, "lon": -2.9791835}, {"type": "node", "id": 10799870540, "lat": 53.4022266, "lon": -2.9790271}, {"type": "node", "id": 10799870541, "lat": 53.4022379, "lon": -2.9792377}, {"type": "node", "id": 10799870542, "lat": 53.4021595, "lon": -2.9793163}, {"type": "node", "id": 10799870545, "lat": 53.4021278, "lon": -2.980666}, {"type": "node", "id": 10799870547, "lat": 53.4020237, "lon": -2.9805491}, {"type": "node", "id": 10799870549, "lat": 53.4021096, "lon": -2.9806838}, {"type": "node", "id": 10799870552, "lat": 53.4031123, "lon": -2.9817367, "tags": {"addr:city": "Liverpool", "addr:housenumber": "13-21", "addr:postcode": "L1 4AU", "addr:street": "Seel Street", "amenity": "bar", "name": "Zodiac"}}, {"type": "node", "id": 10799870553, "lat": 53.4031371, "lon": -2.9814926, "tags": {"addr:city": "Liverpool", "addr:housenumber": "13-21", "addr:postcode": "L1 4AU", "addr:street": "Seel Street", "amenity": "bar", "brand": "Be At One", "brand:wikidata": "Q110016786", "name": "Be At One", "operator": "Stonegate", "operator:wikidata": "Q7619176", "website": "https://www.beatone.co.uk/liverpool"}}, {"type": "node", "id": 10799870554, "lat": 53.403009, "lon": -2.9814568, "tags": {"addr:city": "Liverpool", "addr:housenumber": "13-21", "addr:postcode": "L1 4AU", "addr:street": "Seel Street", "amenity": "bar", "name": "Brockbank"}}, {"type": "node", "id": 10799870555, "lat": 53.4029361, "lon": -2.9812543, "tags": {"addr:city": "Liverpool", "addr:housenumber": "13-21", "addr:postcode": "L1 4AU", "addr:street": "Seel Street", "amenity": "bar", "name": "Only Fools Bar"}}, {"type": "node", "id": 10799870556, "lat": 53.4030388, "lon": -2.9812741, "tags": {"addr:city": "Liverpool", "addr:housenumber": "13-21", "addr:postcode": "L1 4AU", "addr:street": "Seel Street", "amenity": "bar"}}, {"type": "node", "id": 10805460199, "lat": 53.4034652, "lon": -2.9805269}, {"type": "node", "id": 10805460200, "lat": 53.4033819, "lon": -2.980356}, {"type": "node", "id": 10805460203, "lat": 53.4033053, "lon": -2.9795967}, {"type": "node", "id": 10873782969, "lat": 53.4073992, "lon": -2.9810044}, {"type": "node", "id": 10873782970, "lat": 53.407173, "lon": -2.9807279}, {"type": "node", "id": 10876057806, "lat": 53.4034319, "lon": -2.9869926, "tags": {"amenity": "bar", "name": "On The Green"}}, {"type": "node", "id": 10891407774, "lat": 53.4031411, "lon": -2.9847156}, {"type": "node", "id": 10891407775, "lat": 53.4031411, "lon": -2.9847283}, {"type": "node", "id": 10891407776, "lat": 53.4031492, "lon": -2.9847465}, {"type": "node", "id": 10891407777, "lat": 53.4031942, "lon": -2.9845832}, {"type": "node", "id": 10891407778, "lat": 53.4032288, "lon": -2.9846258}, {"type": "node", "id": 10891407779, "lat": 53.4033049, "lon": -2.9846189}, {"type": "node", "id": 10891407780, "lat": 53.4033056, "lon": -2.9846463}, {"type": "node", "id": 10906073387, "lat": 53.4042691, "lon": -2.9823646}, {"type": "node", "id": 10906073388, "lat": 53.404291, "lon": -2.9823811}, {"type": "node", "id": 10906073389, "lat": 53.4042963, "lon": -2.9823928}, {"type": "node", "id": 10908761019, "lat": 53.4063641, "lon": -2.9864652}, {"type": "node", "id": 10908761029, "lat": 53.4066319, "lon": -2.9836853}, {"type": "node", "id": 10908761030, "lat": 53.4066728, "lon": -2.9839958}, {"type": "node", "id": 10908761031, "lat": 53.4066839, "lon": -2.9839916}, {"type": "node", "id": 10908761032, "lat": 53.4066877, "lon": -2.9840204}, {"type": "node", "id": 10908761035, "lat": 53.406695, "lon": -2.9838231}, {"type": "node", "id": 10908761036, "lat": 53.4066821, "lon": -2.9836666}, {"type": "node", "id": 10908761037, "lat": 53.4067019, "lon": -2.9838205}, {"type": "node", "id": 10920022784, "lat": 53.4027613, "lon": -2.9785908}, {"type": "node", "id": 10920022785, "lat": 53.4028775, "lon": -2.9788348}, {"type": "node", "id": 10920022799, "lat": 53.4029316, "lon": -2.9792738}, {"type": "node", "id": 10920022800, "lat": 53.4030082, "lon": -2.9794325}, {"type": "node", "id": 10920022801, "lat": 53.4030994, "lon": -2.9793086}, {"type": "node", "id": 10925028308, "lat": 53.4016543, "lon": -2.9789053}, {"type": "node", "id": 10925028309, "lat": 53.4019059, "lon": -2.979042}, {"type": "node", "id": 10925028310, "lat": 53.4018793, "lon": -2.9789664}, {"type": "node", "id": 10925028311, "lat": 53.4019297, "lon": -2.9790183}, {"type": "node", "id": 10925028312, "lat": 53.401903, "lon": -2.9789428}, {"type": "node", "id": 10925028313, "lat": 53.4017287, "lon": -2.9791152}, {"type": "node", "id": 10925028314, "lat": 53.4017354, "lon": -2.9791084}, {"type": "node", "id": 10925028315, "lat": 53.4017628, "lon": -2.9791857}, {"type": "node", "id": 10925028316, "lat": 53.4017852, "lon": -2.9791634}, {"type": "node", "id": 10925028317, "lat": 53.4018198, "lon": -2.9787404}, {"type": "node", "id": 10925028318, "lat": 53.401731, "lon": -2.9784895}, {"type": "node", "id": 10925028319, "lat": 53.4016253, "lon": -2.9785939}, {"type": "node", "id": 10925028320, "lat": 53.401666, "lon": -2.9787091}, {"type": "node", "id": 10925028321, "lat": 53.4016535, "lon": -2.9787215}, {"type": "node", "id": 10925028322, "lat": 53.4016685, "lon": -2.9787638}, {"type": "node", "id": 10925028323, "lat": 53.401621, "lon": -2.9788112}, {"type": "node", "id": 10925028324, "lat": 53.4016814, "lon": -2.9783513}, {"type": "node", "id": 10925028325, "lat": 53.4015159, "lon": -2.9785163}, {"type": "node", "id": 10925028327, "lat": 53.4016434, "lon": -2.9782476}, {"type": "node", "id": 10925028328, "lat": 53.4014791, "lon": -2.9784151}, {"type": "node", "id": 10925028329, "lat": 53.4015936, "lon": -2.9781103}, {"type": "node", "id": 10925028330, "lat": 53.4014293, "lon": -2.9782777}, {"type": "node", "id": 10925028331, "lat": 53.4012981, "lon": -2.9776531}, {"type": "node", "id": 10925028332, "lat": 53.4011559, "lon": -2.977791}, {"type": "node", "id": 10925028334, "lat": 53.4012782, "lon": -2.9777263, "tags": {"addr:city": "Liverpool", "addr:housenumber": "22", "addr:postcode": "L1 4DE", "addr:street": "Colquitt Street", "amenity": "bar", "level": "-1", "name": "NQ64"}}, {"type": "node", "id": 10925297066, "lat": 53.4024724, "lon": -2.9788099}, {"type": "node", "id": 10925297067, "lat": 53.4026119, "lon": -2.9786334}, {"type": "node", "id": 10925297068, "lat": 53.4026539, "lon": -2.9787267}, {"type": "node", "id": 10925297069, "lat": 53.4026324, "lon": -2.9783045}, {"type": "node", "id": 10925297070, "lat": 53.4025227, "lon": -2.9783748}, {"type": "node", "id": 10925297071, "lat": 53.4023648, "lon": -2.9785707}, {"type": "node", "id": 10925297077, "lat": 53.401186, "lon": -2.9766163}, {"type": "node", "id": 10925297078, "lat": 53.4012521, "lon": -2.9765502}, {"type": "node", "id": 10925297079, "lat": 53.4012018, "lon": -2.976431}, {"type": "node", "id": 10925297080, "lat": 53.4012322, "lon": -2.9764006}, {"type": "node", "id": 10925297081, "lat": 53.4012748, "lon": -2.9765203}, {"type": "node", "id": 10925297082, "lat": 53.4012502, "lon": -2.9765448}, {"type": "node", "id": 10933956389, "lat": 53.4085099, "lon": -2.9928772}, {"type": "node", "id": 10933956390, "lat": 53.4086472, "lon": -2.993071}, {"type": "node", "id": 10933956391, "lat": 53.4086061, "lon": -2.9931516}, {"type": "node", "id": 10995298826, "lat": 53.4055534, "lon": -2.993318, "tags": {"addr:city": "Liverpool", "addr:housenumber": "50", "addr:postcode": "L2 0PL", "addr:street": "Brunswick Street", "amenity": "bar", "level": "4", "name": "Libert\u00e9 Sky Garden"}}, {"type": "node", "id": 11111438207, "lat": 53.4057938, "lon": -2.979332, "tags": {"amenity": "bar", "name": "Central Sports"}}, {"type": "node", "id": 11190610518, "lat": 53.3752057, "lon": -2.9397575, "tags": {"addr:city": "Liverpool", "addr:housenumber": "278", "addr:postcode": "L17 9PJ", "addr:street": "Aigburth Road", "amenity": "bar", "brewery": "yes", "contact:facebook": "https://www.facebook.com/AigburthTap", "name": "The Little Taproom on Aigburth Road", "opening_hours": "Sunday, 2-9\u202fpm Monday, Closed Tuesday, 4-10:30\u202fpm Wednesday, 4-10:30\u202fpm Thursday, 4-10:30\u202fpm Friday, 4-10:30\u202fpm Saturday, 2-10:30\u202fpm"}}, {"type": "node", "id": 11310370955, "lat": 53.4401904, "lon": -2.9711296}, {"type": "node", "id": 11310370956, "lat": 53.4402197, "lon": -2.9709483}, {"type": "node", "id": 11310370957, "lat": 53.4401962, "lon": -2.9711831}, {"type": "node", "id": 11310370958, "lat": 53.4402039, "lon": -2.9711358}, {"type": "node", "id": 11310370959, "lat": 53.4402618, "lon": -2.9709425}, {"type": "node", "id": 11310370960, "lat": 53.4402209, "lon": -2.9711945}, {"type": "node", "id": 11310696906, "lat": 53.4414553, "lon": -2.9709017}, {"type": "node", "id": 11310696907, "lat": 53.4414656, "lon": -2.9709235}, {"type": "node", "id": 11310696908, "lat": 53.4414232, "lon": -2.9711746}, {"type": "node", "id": 11310696909, "lat": 53.4413348, "lon": -2.9711329}, {"type": "node", "id": 11310696910, "lat": 53.4413405, "lon": -2.9710992}, {"type": "node", "id": 11310696924, "lat": 53.4413736, "lon": -2.9709009}, {"type": "node", "id": 11508341364, "lat": 53.4017326, "lon": -2.980218}, {"type": "node", "id": 11508341367, "lat": 53.4017226, "lon": -2.9802277}, {"type": "node", "id": 11599884327, "lat": 53.4040413, "lon": -2.9817243}, {"type": "node", "id": 11599884328, "lat": 53.4040095, "lon": -2.9816607}, {"type": "node", "id": 11599884329, "lat": 53.4039513, "lon": -2.9818506}, {"type": "node", "id": 11599884340, "lat": 53.4017221, "lon": -2.977676}, {"type": "node", "id": 11599884342, "lat": 53.4016739, "lon": -2.9777232}, {"type": "node", "id": 11599884344, "lat": 53.4017295, "lon": -2.9776687}, {"type": "node", "id": 11599884346, "lat": 53.401663, "lon": -2.9776919}, {"type": "node", "id": 11599884347, "lat": 53.4015959, "lon": -2.9777577}, {"type": "node", "id": 11599884348, "lat": 53.4016474, "lon": -2.9775869}, {"type": "node", "id": 11599884349, "lat": 53.401572, "lon": -2.97737}, {"type": "node", "id": 11599884350, "lat": 53.4015649, "lon": -2.9776686}, {"type": "node", "id": 11599884351, "lat": 53.401687, "lon": -2.9775481}, {"type": "node", "id": 11608709634, "lat": 53.4029205, "lon": -2.9760658}, {"type": "node", "id": 11608709635, "lat": 53.4030526, "lon": -2.9756341}, {"type": "node", "id": 11626487732, "lat": 53.4021193, "lon": -2.9697605}, {"type": "node", "id": 11626487733, "lat": 53.4021684, "lon": -2.9697327}, {"type": "node", "id": 11626487737, "lat": 53.4021478, "lon": -2.9695819}, {"type": "node", "id": 11626487738, "lat": 53.4021323, "lon": -2.9695046}, {"type": "node", "id": 11626487739, "lat": 53.4021276, "lon": -2.9697558}, {"type": "node", "id": 11626487740, "lat": 53.4021316, "lon": -2.9697462}, {"type": "node", "id": 11626487741, "lat": 53.4021551, "lon": -2.9697317}, {"type": "node", "id": 11626487742, "lat": 53.40214, "lon": -2.9697367}, {"type": "node", "id": 11626487743, "lat": 53.4021474, "lon": -2.9697319}, {"type": "node", "id": 11958727269, "lat": 53.4320269, "lon": -2.909768}, {"type": "node", "id": 11958727270, "lat": 53.4319493, "lon": -2.9094986}, {"type": "node", "id": 11958727271, "lat": 53.4319791, "lon": -2.909474}, {"type": "node", "id": 11958727272, "lat": 53.4320116, "lon": -2.9095851}, {"type": "node", "id": 11958727273, "lat": 53.4320588, "lon": -2.9095492}, {"type": "node", "id": 11958727274, "lat": 53.4321036, "lon": -2.909709}, {"type": "way", "id": 152458653, "nodes": [1652770371, 1652770377, 1652770375, 1652770370, 1652770371], "tags": {"amenity": "bar", "building": "yes", "name": "Bock Biere Cafe", "source": "Survey"}}, {"type": "way", "id": 196578851, "nodes": [705908217, 2068976148, 2068976139, 2068976132, 2068976144, 8249961844, 705908217], "tags": {"addr:city": "Liverpool", "addr:housename": "The Stables", "addr:postcode": "L1 4BG", "addr:street": "Back Berry Street", "amenity": "bar", "building": "yes", "fhrs:id": "497744", "name": "MOJO", "source": "bing;Yahoo"}}, {"type": "way", "id": 208576082, "nodes": [2188587806, 2188587754, 2188587797, 2188587813, 2188587802, 2188587830, 9788701893, 9788701895, 2188587806], "tags": {"addr:city": "Liverpool", "addr:housenumber": "8, 8A", "addr:postcode": "L2 6PX", "addr:street": "Rainford Square", "amenity": "bar", "building": "yes", "disused:shop": "yes", "name": "Roxy Ball Room", "old_name": "BHS"}}, {"type": "way", "id": 208578872, "nodes": [5865641966, 2188612407, 2188612262, 2188612356, 10805460203, 5865641966], "tags": {"addr:city": "Liverpool", "addr:housenumber": "52", "addr:postcode": "L1 4EA", "addr:street": "Bold Street", "amenity": "bar", "brand": "Coyote Ugly Saloon", "brand:wikidata": "Q4131558", "brand:wikipedia": "en:Coyote Ugly Saloon", "building": "yes", "fhrs:id": "1048272", "fhrs:local_authority_id": "PI/000272125", "name": "Coyote Ugly", "website": "https://www.coyoteuglysaloon.com/liverpool/"}}, {"type": "way", "id": 208578883, "nodes": [2188612275, 2188612408, 2188612246, 2188612274, 2188612275], "tags": {"addr:city": "Liverpool", "addr:housenumber": "25", "addr:postcode": "L1 4JN", "addr:street": "Parr Street", "amenity": "bar", "building": "yes", "name": "Crazy Pedro's"}}, {"type": "way", "id": 208578894, "nodes": [2188612432, 2188612306, 2188612428, 2188612371, 2188612432], "tags": {"addr:city": "Liverpool", "addr:housenumber": "18-22", "addr:postcode": "L1 4AQ", "addr:street": "Wood Street", "amenity": "bar", "building": "yes", "name": "Yankees"}}, {"type": "way", "id": 230811257, "nodes": [2392560999, 2392561003, 11508341364, 11508341367, 348038381, 2392560998, 2392561000, 2392560996, 2392560999], "tags": {"amenity": "bar", "building": "yes", "name": "Santa Chupitos", "opening_hours": "Mo-Su 00:00-03:00,17:00-24:00;Tu-Th 00:00-02:00,17:00-24:00", "website": "https://www.santachupitos.com/"}}, {"type": "way", "id": 269391429, "nodes": [3755497311, 2746158047, 2746158027, 2746158038, 3755497311], "tags": {"addr:city": "Liverpool", "addr:housenumber": "21-23", "addr:postcode": "L1 9DF", "addr:street": "Berry Street", "amenity": "bar", "building": "yes", "name": "Red Door"}}, {"type": "way", "id": 279397144, "nodes": [2836059569, 2836059559, 2836059598, 2836059576, 2836059569], "tags": {"addr:city": "Liverpool", "addr:housenumber": "48-50", "addr:postcode": "L1 4DS", "addr:street": "Bold Street", "amenity": "bar", "building": "yes", "name": "Cheers Big Ears", "source": "os_opendata_streetview"}}, {"type": "way", "id": 279397161, "nodes": [2836058907, 2836058890, 2836058949, 2836058969, 2836058907], "tags": {"addr:city": "Liverpool", "addr:housenumber": "24", "addr:postcode": "L1 4BS", "addr:street": "Slater Street", "amenity": "bar", "building": "yes", "name": "The Hatch"}}, {"type": "way", "id": 279397205, "nodes": [2836059297, 2836059286, 2836059336, 2836059350, 2836059297], "tags": {"addr:city": "Liverpool", "addr:housenumber": "70", "addr:postcode": "L1 4HR", "addr:street": "Bold Street", "alt_name": "Ropes and Twines", "amenity": "bar", "building:levels": "4", "building:part": "yes", "cuisine": "coffee_shop", "fhrs:id": "1086096", "fhrs:local_authority_id": "PI/000271409", "name": "Ropes & Twines", "source": "bing", "website": "http://www.ropes-and-twines.co.uk/"}}, {"type": "way", "id": 279397334, "nodes": [2836058802, 2836058659, 8252872691, 2836058689, 6784927304, 2836058804, 8252872688, 8252872687, 2836058883, 8252872697, 2836058826, 2836058802], "tags": {"access": "yes", "addr:city": "Liverpool", "addr:housenumber": "45-61", "addr:postcode": "L1 5AP", "addr:street": "Duke Street", "amenity": "bar", "building": "yes", "name": "PINS", "note": "80p per half hour or part thereof"}}, {"type": "way", "id": 279397359, "nodes": [2836059910, 2836059944, 2836059949, 10906073387, 2836059953, 10906073388, 10906073389, 2836059956, 2836059954, 2836059917, 2836059910], "tags": {"amenity": "bar", "building": "yes", "name": "Lounge 69"}}, {"type": "way", "id": 436191927, "nodes": [2277696943, 11626487738, 11626487737, 2277696724, 11626487733, 2277696956, 4340688542, 2277696858, 2277696943], "tags": {"addr:city": "Liverpool", "addr:housenumber": "29", "addr:postcode": "L1 9BP", "addr:street": "Hope Street", "amenity": "bar", "building": "yes", "name": "The Casa Bar"}}, {"type": "way", "id": 453372367, "nodes": [4501133108, 4501132273, 4501133106, 4501133101, 4501133130, 4501133133, 4501133108], "tags": {"addr:city": "Liverpool", "addr:housenumber": "8-9", "addr:postcode": "L1 3DF", "addr:street": "Kenyon's Steps", "amenity": "bar", "building": "yes", "fhrs:id": "1244450", "name": "Aether", "source:addr:postcode": "code-point_open"}}, {"type": "way", "id": 887350654, "nodes": [8249961893, 8250022993, 8250023002, 8250023003, 10799870535, 10799870534, 10799870536, 2188612314, 8250022992, 8249961893], "tags": {"addr:city": "Liverpool", "addr:housenumber": "43", "addr:postcode": "L1 4AZ", "addr:street": "Seel Street", "amenity": "bar", "building": "yes", "name": "The Zanzibar Club"}}, {"type": "way", "id": 887649228, "nodes": [8252872631, 8252872649, 10799870545, 10799870549, 8252872632, 10799870547, 277072278, 8252872636, 8252872637, 8252872634, 8252872631], "tags": {"amenity": "bar", "building": "yes", "name": "The Merchant"}}, {"type": "way", "id": 887649244, "nodes": [2836058883, 8252872693, 8252872711, 8252872694, 8252872695, 8252872696, 8252872697, 2836058883], "tags": {"addr:city": "Liverpool", "addr:housenumber": "28", "addr:postcode": "L1 4JH", "addr:street": "Gradwell Street", "amenity": "bar", "building": "yes", "name": "Pattersons", "opening_hours": "Mo-Su 12:00-00:00", "outdoor_seating": "yes", "phone": "+44 151 707 6367", "website": "https://www.pattersonsliverpool.com/"}}, {"type": "way", "id": 1085218459, "nodes": [9943815044, 9943815039, 9943815040, 9943815041, 9943815042, 9943815043, 9943815045, 9943815046, 9943815048, 9943815047, 9943815044], "tags": {"amenity": "bar", "building": "yes", "name": "Remeniss"}}, {"type": "way", "id": 1085218463, "nodes": [2188587765, 10234611869, 9943815038, 9943815057, 9943815056, 9943815055, 9943815058, 9943815059, 9943815060, 9943815061, 9943815062, 9943815063, 9943815064, 2188587765], "tags": {"addr:city": "Liverpool", "addr:housenumber": "2", "addr:postcode": "L2 6PY", "addr:street": "Temple Court", "amenity": "bar", "building": "yes", "name": "Revolver"}}, {"type": "way", "id": 1085218464, "nodes": [9943815065, 9943815066, 9943815067, 9943815068, 9943815065], "tags": {"addr:city": "Liverpool", "addr:housenumber": "22", "addr:postcode": "L2 6RE", "addr:street": "Mathew Street", "amenity": "bar", "building": "yes", "name": "Hardy's"}}, {"type": "way", "id": 1085218467, "nodes": [9943815073, 9943815074, 9943815075, 9943815076, 9943815077, 9943815078, 10908761019, 9943815069, 9943815070, 9943815073], "tags": {"addr:city": "Liverpool", "addr:housenumber": "20-24", "addr:postcode": "L2 6RE", "addr:street": "Mathew Street", "amenity": "bar", "building": "yes", "name": "Legends"}}, {"type": "way", "id": 1091833100, "nodes": [9999526840, 9999526842, 9999526843, 9999526841, 9999526840], "tags": {"addr:city": "Liverpool", "addr:postcode": "L1 1HU", "addr:street": "Great Charlotte Street", "amenity": "bar", "check_date:opening_hours": "2023-02-16", "name": "Ruby Blues", "opening_hours:signed": "no", "room": "yes"}}, {"type": "way", "id": 1091833101, "nodes": [9999526842, 9999526844, 9999526845, 9999526843, 9999526842], "tags": {"addr:city": "Liverpool", "addr:housenumber": "53", "addr:postcode": "L1 1HU", "addr:street": "Great Charlotte Street", "amenity": "bar", "name": "Smokies", "room": "yes"}}, {"type": "way", "id": 1091833103, "nodes": [9999526846, 9999526848, 9999526849, 9999526847, 9999526846], "tags": {"addr:city": "Liverpool", "addr:postcode": "L1 1HU", "addr:street": "Great Charlotte Street", "amenity": "bar", "name": "The Rocking Horse", "room": "yes"}}, {"type": "way", "id": 1117631267, "nodes": [4437731935, 10221802702, 4437731933, 6762428750, 6762428724, 10221802694, 10221802695, 4437731929, 4437731935], "tags": {"amenity": "bar", "building:part": "retail", "level": "0", "name": "Lime Street Bar"}}, {"type": "way", "id": 1119040245, "nodes": [10234447466, 9999525206, 9999525205, 10234447467, 10234447466], "tags": {"addr:city": "Liverpool", "addr:housenumber": "72", "addr:postcode": "L1 1JN", "addr:street": "Lime Street", "amenity": "bar", "building:part": "retail", "name": "Sanctuary Craft Bar"}}, {"type": "way", "id": 1119040251, "nodes": [436643718, 4402567190, 10234447478, 10234447473, 436643718], "tags": {"addr:housenumber": "35", "addr:street": "School Lane", "amenity": "bar", "building": "yes", "internet_access": "wlan", "name": "Brass Monkey", "name:en": "Brass Monkey"}}, {"type": "way", "id": 1119040252, "nodes": [10234447478, 10234447479, 10234447480, 4402567190, 10234447478], "tags": {"amenity": "bar", "building": "yes", "name": "Present Company"}}, {"type": "way", "id": 1119059465, "nodes": [2188587842, 10234611887, 10234611888, 10234611886, 10234611885, 2188587798, 2188587801, 2188587842], "tags": {"addr:city": "Liverpool", "addr:postcode": "L2 6RE", "addr:street": "Mathew Street", "amenity": "bar", "building": "yes", "indoor_seating": "yes", "name": "SGT Peppers", "outdoor_seating": "no"}}, {"type": "way", "id": 1125717782, "nodes": [10294067395, 10294067396, 10294067397, 10294067398, 10294067394, 10294067393, 10294067395], "tags": {"addr:city": "Liverpool", "addr:housenumber": "52-54", "addr:postcode": "L2 7LQ", "addr:street": "Castle Street", "amenity": "bar", "building": "yes", "fhrs:id": "1154538", "heritage": "2", "heritage:operator": "he", "heritage:website": "https://historicengland.org.uk/listing/the-list/list-entry/1068341", "listed_status": "Grade II", "name": "Liverpool Gin Distillery", "website": "https://liverpoolgindistillery.com", "wheelchair": "yes"}}, {"type": "way", "id": 1125717793, "nodes": [10294067399, 10294088822, 10294088823, 10294067400, 10294067399], "tags": {"addr:city": "Liverpool", "addr:housenumber": "46", "addr:postcode": "L2 7LA", "addr:street": "Castle Street", "amenity": "bar", "building:part": "yes", "level": "0", "name": "Bobo's", "name:en": "Bobo"}}, {"type": "way", "id": 1125717794, "nodes": [10294067395, 10294067399, 10294067400, 10294088823, 10294067401, 10294067402, 10294067398, 10294067397, 10294067396, 10294067395], "tags": {"addr:city": "Liverpool", "addr:housenumber": "48A", "addr:postcode": "L2 7LQ", "addr:street": "Castle Street", "amenity": "bar", "building:part": "yes", "fhrs:id": "1244184", "level": "-1", "name": "The Underground Gin Society"}}, {"type": "way", "id": 1125737283, "nodes": [10294240901, 10294240899, 10294240898, 6266681523, 10294240895, 10294240896, 10294240897, 10294240902, 2188561493, 10294240901], "tags": {"addr:city": "Liverpool", "addr:postcode": "L2 7NU", "addr:street": "Derby Square", "amenity": "bar", "brand": "All Bar One", "brand:wikidata": "Q4728624", "brand:wikipedia": "en:All Bar One", "building:part": "yes", "level": "0", "name": "All Bar One", "website": "https://www.allbarone.co.uk/national-search/north-west/all-bar-one-liverpool"}}, {"type": "way", "id": 1126354165, "nodes": [10299297898, 10299297900, 10299297896, 10299297897, 10299297898], "tags": {"addr:city": "Liverpool", "addr:housenumber": "6", "addr:postcode": "L2 0NB", "addr:street": "Castle Street", "amenity": "bar", "building:part": "yes", "level": "0", "name": "Black Barrel"}}, {"type": "way", "id": 1126354167, "nodes": [10299297903, 10299297893, 10299297904, 10299298410, 10299297902, 10299297903], "tags": {"addr:city": "Liverpool", "addr:housenumber": "10", "addr:postcode": "L2 0NE", "addr:street": "Castle Street", "amenity": "bar", "building:part": "yes", "industrial": "machine_shop", "level": "0", "name": "McGuffie & Co", "name:en": "McGuffie & Co Cocktail Bar", "website": "http://mcguffieandco.co.uk/"}}, {"type": "way", "id": 1126354168, "nodes": [10299297905, 10299297906, 10299297907, 10299297908, 10299297905], "tags": {"addr:city": "Liverpool", "addr:housenumber": "16", "addr:postcode": "L2 0NE", "addr:street": "Castle Street", "amenity": "bar", "building:part": "yes", "level": "0", "name": "Rox"}}, {"type": "way", "id": 1126354169, "nodes": [10299297907, 10299298409, 10299297892, 10299297908, 10299297907], "tags": {"addr:city": "Liverpool", "addr:housenumber": "18", "addr:postcode": "L2 0NE", "addr:street": "Castle Street", "amenity": "bar", "building:part": "yes", "level": "0", "name": "Sanctuary Tap"}}, {"type": "way", "id": 1133250991, "nodes": [10565786341, 10565786342, 10565786330, 10565786329, 10565786341], "tags": {"addr:city": "Liverpool", "addr:housenumber": "3", "addr:postcode": "L2 6PY", "addr:street": "Temple Court", "amenity": "bar", "building:part": "yes", "name": "Tres"}}, {"type": "way", "id": 1161156437, "nodes": [10799870532, 10799870533, 2836058897, 2836058891, 10799870532], "tags": {"addr:city": "Liverpool", "addr:housenumber": "39", "addr:postcode": "L1 4AU", "addr:street": "Seel Street", "amenity": "bar", "building:part": "retail", "name": "The Highball Club", "source:addr:postcode": "code-point_open"}}, {"type": "way", "id": 1161156438, "nodes": [10799870532, 2836058864, 2836058879, 10799870533, 10799870532], "tags": {"addr:city": "Liverpool", "addr:housenumber": "28", "addr:postcode": "L1 4BX", "addr:street": "Slater Street", "amenity": "bar", "building:part": "retail", "name": "Butter"}}, {"type": "way", "id": 1161156441, "nodes": [10799870539, 10799870540, 2188612443, 2188612440, 8250022995, 8250022996, 8250023009, 8250022997, 8250022998, 10799870539], "tags": {"addr:city": "Liverpool", "addr:housename": "The Old Stables", "addr:housenumber": "2", "addr:postcode": "L1 4AS", "addr:street": "Old Peter's Lane", "amenity": "bar", "building": "yes", "name": "MOLOKO"}}, {"type": "way", "id": 1161156442, "nodes": [10799870539, 1652784506, 10799870541, 10799870542, 8250022994, 10799870540, 10799870539], "tags": {"addr:city": "Liverpool", "addr:housenumber": "49-51", "addr:postcode": "L1 4AZ", "addr:street": "Seel Street", "amenity": "bar", "building": "yes", "name": "The Peacock"}}, {"type": "way", "id": 1161156446, "nodes": [8252872646, 8252872638, 8252872639, 8252872648, 8252872647, 8252872646], "tags": {"addr:city": "Liverpool", "addr:housenumber": "34", "addr:postcode": "L1 4BX", "addr:street": "Slater Street", "amenity": "bar", "building:part": "retail", "level": "0", "name": "Spanish Caravan"}}, {"type": "way", "id": 1161803016, "nodes": [10805460200, 27419238, 2188612293, 10805460199, 10805460200], "tags": {"amenity": "bar", "building:part": "retail", "name": "Soho"}}, {"type": "way", "id": 1169376699, "nodes": [10873782969, 10873782970, 2144835430, 2144835420, 2144835489, 8168088136, 2144835468, 763472259, 8129883495, 2261421096, 10873782969], "tags": {"amenity": "bar", "building:part": "retail", "level": "1", "name": "Boom Battle Bar"}}, {"type": "way", "id": 1172189742, "nodes": [2836059533, 2836059535, 2836059358, 10891407776, 2836059356, 10891407775, 10891407774, 10891407777, 10891407778, 10891407779, 10891407780, 2836059533], "tags": {"addr:city": "Liverpool", "addr:housenumber": "45", "addr:postcode": "L1 3DN", "addr:street": "Hanover Street", "amenity": "bar", "building:part": "retail", "cuisine": "chicken", "name": "leveltap"}}, {"type": "way", "id": 1174024626, "nodes": [10908761029, 10908761030, 10908761031, 10908761032, 5612684978, 10908761035, 10908761037, 10908761036, 10908761029], "tags": {"addr:city": "Liverpool", "addr:housenumber": "5", "addr:postcode": "L1 1EQ", "addr:street": "Williamson Square", "amenity": "bar", "building": "yes", "name": "Shiraz"}}, {"type": "way", "id": 1175157255, "nodes": [2188612301, 10920022785, 2188612366, 10920022784, 2188612327, 2188612301], "tags": {"addr:street": "Wood Street", "amenity": "bar", "building": "yes", "name": "Woody's Sports & Karaoke Bar", "smoking": "outside"}}, {"type": "way", "id": 1175157262, "nodes": [10920022799, 10920022800, 2836059325, 10920022801, 2836059320, 10920022799], "tags": {"addr:city": "Liverpool", "addr:housenumber": "6-10", "addr:postcode": "L1 4BS", "addr:street": "Slater Street", "amenity": "bar", "building:part": "retail", "name": "Teddy's"}}, {"type": "way", "id": 1175740067, "nodes": [10925028308, 2188612238, 10925028310, 10925028312, 10925028311, 10925028309, 2188612343, 2188612461, 10925028316, 10925028315, 10925028314, 10925028313, 10925028308], "tags": {"addr:city": "Liverpool", "addr:housename": "St Peters Church", "addr:postcode": "L1 4BH", "addr:street": "Seel Street", "amenity": "bar", "building": "yes", "name": "Alma de Cuba", "wheelchair": "limited"}}, {"type": "way", "id": 1175740068, "nodes": [2188612238, 10925028317, 10925028318, 10925028319, 10925028320, 10925028321, 10925028322, 10925028323, 10925028308, 2188612238], "tags": {"addr:city": "Liverpool", "addr:housenumber": "78", "addr:postcode": "L1 4BH", "addr:street": "Seel Street", "amenity": "bar", "building": "yes", "name": "BrooklynMixer"}}, {"type": "way", "id": 1175740070, "nodes": [10925028324, 10925028327, 10925028328, 10925028325, 10925028324], "tags": {"addr:city": "Liverpool", "addr:housenumber": "82", "addr:postcode": "L1 4BH", "addr:street": "Seel Street", "amenity": "bar", "building": "yes", "name": "Heebie Jeebies"}}, {"type": "way", "id": 1175740071, "nodes": [10925028327, 10925028329, 10925028330, 10925028328, 10925028327], "tags": {"addr:city": "Liverpool", "addr:housenumber": "84", "addr:postcode": "L1 4BH", "addr:street": "Seel Street", "amenity": "bar", "building": "yes", "name": "Stereo"}}, {"type": "way", "id": 1175740072, "nodes": [8250309069, 8250309070, 10925028331, 10925028332, 8250309067, 8250309069], "tags": {"addr:city": "Liverpool", "addr:housenumber": "24", "addr:postcode": "L1 4DE", "addr:street": "Colquitt Street", "amenity": "bar", "building": "yes", "name": "Royal Institution", "opening_hours": "Tu-Sa 11:00-18:00", "website": "https://www.whiskybusinessliverpool.com/"}}, {"type": "way", "id": 1175774672, "nodes": [10925297069, 27419487, 10925297070, 10925297071, 10925297066, 10925297067, 10925297068, 2188612327, 10920022784, 10925297069], "tags": {"addr:city": "Liverpool", "addr:postcode": "L1 4AR", "addr:street": "Fleet Street", "amenity": "bar", "brand": "Revolution", "brand:wikidata": "Q64024398", "building:part": "yes", "fhrs:id": "1243718", "name": "Revolution", "source:addr:postcode": "code-point_open"}}, {"type": "way", "id": 1175774675, "nodes": [10925297077, 2068976137, 4683836400, 10925297079, 10925297080, 10925297081, 10925297082, 10925297078, 10925297077], "tags": {"amenity": "bar", "building": "yes", "cuisine": "meat", "name": "Salt Dog Slim's"}}, {"type": "way", "id": 1176909545, "nodes": [10933956389, 10933956390, 10933956391, 1236244265, 10933956389], "tags": {"addr:city": "Liverpool", "addr:housenumber": "8", "addr:postcode": "L3 9PA", "addr:street": "Old Hall Street", "amenity": "bar", "building:part": "yes", "level": "-1", "name": "Puffin' Rooms"}}, {"type": "way", "id": 1220591895, "nodes": [11310370959, 11310370960, 11310370957, 11310370958, 11310370955, 11310370956, 11310370959], "tags": {"addr:city": "Liverpool", "addr:housenumber": "53", "addr:postcode": "L4 3QA", "addr:street": "County Road", "amenity": "bar", "building:part": "retail", "name": "JT's Bar"}}, {"type": "way", "id": 1220630382, "nodes": [11310696909, 11310696908, 11310696907, 11310696906, 11310696924, 11310696910, 11310696909], "tags": {"addr:city": "Liverpool", "addr:housenumber": "93-95", "addr:postcode": "L4 3QD", "addr:street": "County Road", "amenity": "bar", "building:part": "retail", "name": "Segura"}}, {"type": "way", "id": 1247828045, "nodes": [11599884327, 11599884328, 2836059746, 11599884329, 11599884327], "tags": {"addr:city": "Liverpool", "addr:housenumber": "5-7", "addr:postcode": "L1 4AR", "addr:street": "Fleet Street", "amenity": "bar", "building": "yes", "name": "Motel"}}, {"type": "way", "id": 1247828054, "nodes": [11599884348, 11599884349, 8249961891, 11599884350, 11599884348], "tags": {"addr:city": "Liverpool", "addr:housenumber": "20", "addr:postcode": "L1 4DE", "addr:street": "Colquitt Street", "amenity": "bar", "building:part": "retail", "level": "0", "name": "LA'GO"}}, {"type": "way", "id": 1247828055, "nodes": [11599884350, 11599884347, 11599884346, 11599884342, 11599884340, 11599884344, 11599884351, 11599884348, 11599884350], "tags": {"addr:city": "Liverpool", "addr:housenumber": "71a", "addr:postcode": "L1 4AZ", "addr:street": "Seel Street", "amenity": "bar", "building:part": "retail", "level": "0", "name": "Mean-Eyed Cat Bar"}}, {"type": "way", "id": 1248932334, "nodes": [2745708194, 11608709634, 11608709635, 5614802027, 2745708194], "tags": {"addr:city": "Liverpool", "addr:housenumber": "77", "addr:postcode": "L1 2SJ", "addr:street": "Renshaw Street", "amenity": "bar", "building": "yes", "name": "Outpost"}}, {"type": "way", "id": 1250745481, "nodes": [2277696956, 4314101468, 11626487732, 11626487739, 11626487740, 11626487742, 11626487743, 11626487741, 11626487733, 2277696956], "tags": {"amenity": "bar", "building": "yes", "name": "Jenever", "wheelchair": "no"}}, {"type": "way", "id": 1289690232, "nodes": [11958727269, 11958727270, 11958727271, 11958727272, 11958727273, 11958727274, 11958727269], "tags": {"addr:city": "Liverpool", "addr:housenumber": "5", "addr:postcode": "L12 7HX", "addr:street": "Mill Lane", "amenity": "bar", "building": "yes", "name": "The Cubicle"}}]}